TDRS 3                  
1 19548U 88091B   25071.18100161 -.00000306  00000+0  00000+0 0  9994
2 19548  12.9547 344.0803 0041379 343.9520 218.3416  1.00276792120753
HST                     
1 20580U 90037B   25071.42982833  .00011344  00000+0  45206-3 0  9990
2 20580  28.4692 340.0889 0002210  86.7086 273.3760 15.23583455717903
TDRS 5                  
1 21639U 91054B   25071.30914736 -.00000144  00000+0  00000+0 0  9996
2 21639  14.1271 357.1601 0004181 346.8301 203.8766  0.99949601123084
TDRS 6                  
1 22314U 93003B   25071.22609606 -.00000302  00000+0  00000+0 0  9997
2 22314  14.1712   0.4542 0006490 176.2725  28.9387  1.00273645117772
TDRS 7                  
1 23613U 95035B   25071.59664545 -.00000209  00000+0  00000+0 0  9996
2 23613  13.5692 351.3621 0025698  66.8270  51.9953  1.00271595108622
ISS (ZARYA)             
1 25544U 98067A   25071.47094811  .00014495  00000+0  26208-3 0  9992
2 25544  51.6351  66.0638 0006419  13.0256 347.0898 15.49921961500167
TERRA                   
1 25994U 99068A   25071.58377432  .00000983  00000+0  21179-3 0  9997
2 25994  98.0101 132.7870 0001347 212.0465 257.6718 14.60526725342219
TDRS 8                  
1 26388U 00034A   25065.33196628  .00000087  00000+0  00000+0 0  9993
2 26388  11.9506  35.1375 0005685 259.3281 182.0122  1.00281383 90493
TIMED                   
1 26998U 01055B   25071.57937141  .00002778  00000+0  26772-3 0  9997
2 26998  74.0675  83.2545 0001649 312.0288  48.0755 14.93460662261869
AQUA                    
1 27424U 02022A   25071.58206414  .00002183  00000+0  45556-3 0  9991
2 27424  98.3672  28.7949 0001493  53.2249   0.1959 14.60926485215846
TDRS 10                 
1 27566U 02055A   25067.34970059  .00000074  00000+0  00000+0 0  9994
2 27566  10.2611  45.3469 0010195 302.8461 132.9813  1.00271349 81564
SORCE                   
1 27651U 03004A   25071.50204615  .00007611  00000+0  61924-3 0  9995
2 27651  39.9938   7.8917 0019796 330.2203  29.7462 14.99430458202473
AURA                    
1 28376U 04026A   25071.59025229  .00002239  00000+0  47568-3 0  9995
2 28376  98.2846  21.3206 0001362  68.1633 291.9712 14.60072013 98820
SWIFT                   
1 28485U 04047A   25071.56768989  .00032253  00000+0  95658-3 0  9995
2 28485  20.5561  40.9176 0006396 186.9191 173.1160 15.32980337115214
THEMIS A                
1 30580U 07004A   25071.00963959 -.00000069  00000+0  00000+0 0  9997
2 30580   5.7739 237.1146 8439628  18.0440 359.0038  0.87838143 37213
THEMIS D                
1 30797U 07004D   25071.14876630  .00000011  00000+0  00000+0 0  9997
2 30797   1.0175 218.8581 8412562  40.5394  32.1844  0.87836357 37018
THEMIS E                
1 30798U 07004E   25071.14998262 -.00000032  00000+0  00000+0 0  9998
2 30798   3.3730 272.0067 8403963 348.1909  45.1525  0.87837355 61854
FGRST (GLAST)           
1 33053U 08029A   25071.60255727  .00006711  00000+0  28547-3 0  9995
2 33053  25.5821 160.9574 0008594 295.0772  64.8873 15.20290883925425
TDRS 11                 
1 39070U 13004A   25071.57890890  .00000068  00000+0  00000+0 0  9990
2 39070   2.9397  20.5685 0004205   5.2966 178.7698  1.00265498 42069
TDRS 12                 
1 39504U 14004A   25071.47316711 -.00000280  00000+0  00000+0 0  9994
2 39504   3.6266   9.8047 0002445 259.0896  30.8742  1.00275325 39649
GPM-CORE                
1 39574U 14009C   25071.61773927  .00015351  00000+0  33656-3 0  9999
2 39574  64.9781  54.2444 0012647 271.0939  88.8752 15.44191761626516
MMS 1                   
1 40482U 15011A   25069.91668981 -.00002368  00000+0  00000+0 0  9994
2 40482  61.5681 357.8737 8817219 157.3209  95.0463  0.28463838  1369
MMS 2                   
1 40483U 15011B   25069.91668981 -.00002367  00000+0  00000+0 0  9994
2 40483  61.5340 357.8912 8815733 157.3043  95.0374  0.28463724  1367
MMS 3                   
1 40484U 15011C   25069.91668981 -.00002367  00000+0  00000+0 0  9995
2 40484  61.5656 357.8775 8814793 157.3127  95.0401  0.28463988  1366
MMS 4                   
1 40485U 15011D   25070.08335648 -.00002339  00000+0  00000+0 0  9996
2 40485  61.5172 357.8957 8814622 157.2931 102.4673  0.28464779  1368
TDRS 13                 
1 42915U 17047A   25071.49211244 -.00000113  00000+0  00000+0 0  9996
2 42915   3.4797 350.9047 0012064 102.8957 242.2227  1.00271703 27715
NOAA 20 (JPSS-1)        
1 43013U 17073A   25071.53482161  .00000157  00000+0  95207-4 0  9993
2 43013  98.7342  11.2925 0001642 127.9436 232.1889 14.19568037378972
